{"type":"FeatureCollection","features":[{"type":"Feature","properties":{"name":"California","country":"United States"},"geometry":{"type":"MultiPolygon","coordinates":[[[[-114.611,34.991],[-114.611,34.907],[-114.557,34.795],[-114.398,34.59],[-114.379,34.541],[-114.377,34.54],[-114.371,34.488],[-114.308,34.433],[-114.159,34.355],[-114.125,34.317],[-114.125,34.314],[-114.126,34.287],[-114.164,34.253],[-114.329,34.142],[-114.418,34.051],[-114.509,33.904],[-114.495,33.785],[-114.499,33.686],[-114.522,33.608],[-114.556,33.536],[-114.603,33.47],[-114.651,33.431],[-114.702,33.418],[-114.719,33.331],[-114.704,33.17],[-114.648,33.072],[-114.551,33.037],[-114.491,32.984],[-114.469,32.912],[-114.478,32.842],[-114.516,32.773],[-114.582,32.735],[-114.721,32.724],[-114.721,32.724],[-114.725,32.715],[-114.839,32.705],[-115.125,32.683],[-115.411,32.662],[-115.698,32.64],[-115.984,32.619],[-116.27,32.598],[-116.556,32.576],[-116.842,32.555],[-117.128,32.533],[-117.13,32.54],[-117.137,32.649],[-117.184,32.688],[-117.243,32.664],[-117.271,32.806],[-117.256,32.873],[-117.263,32.939],[-117.319,33.1],[-117.467,33.295],[-117.789,33.538],[-117.952,33.62],[-118.081,33.722],[-118.162,33.751],[-118.264,33.759],[-118.294,33.712],[-118.41,33.744],[-118.393,33.858],[-118.506,34.017],[-118.599,34.035],[-118.832,34.024],[-119.144,34.112],[-119.236,34.164],[-119.268,34.257],[-119.414,34.339],[-119.606,34.418],[-119.713,34.4],[-119.853,34.412],[-120.053,34.469],[-120.17,34.476],[-120.396,34.46],[-120.481,34.472],[-120.56,34.544],[-120.645,34.58],[-120.627,34.669],[-120.638,34.749],[-120.625,34.812],[-120.663,34.949],[-120.634,35.076],[-120.659,35.122],[-120.707,35.158],[-120.857,35.21],[-120.885,35.275],[-120.86,35.365],[-120.9,35.425],[-121.023,35.481],[-121.138,35.607],[-121.284,35.676],[-121.344,35.792],[-121.434,35.864],[-121.465,35.927],[-121.664,36.154],[-121.877,36.331],[-121.91,36.433],[-121.919,36.572],[-121.835,36.657],[-121.79,36.732],[-121.795,36.801],[-121.807,36.851],[-121.881,36.939],[-122.164,36.991],[-122.395,37.208],[-122.408,37.373],[-122.499,37.543],[-122.5,37.653],[-122.514,37.772],[-122.446,37.798],[-122.384,37.789],[-122.39,37.741],[-122.37,37.656],[-122.298,37.592],[-122.229,37.564],[-122.166,37.502],[-122.119,37.483],[-122.071,37.478],[-122.097,37.518],[-122.124,37.544],[-122.158,37.626],[-122.222,37.732],[-122.296,37.79],[-122.333,37.897],[-122.365,37.921],[-122.385,37.961],[-122.314,38.007],[-122.217,38.041],[-122.087,38.05],[-121.717,38.034],[-121.638,38.061],[-121.573,38.052],[-121.525,38.056],[-121.626,38.084],[-121.682,38.075],[-121.749,38.08],[-121.881,38.075],[-121.934,38.087],[-121.993,38.12],[-122.032,38.124],[-122.154,38.066],[-122.208,38.073],[-122.337,38.136],[-122.393,38.145],[-122.484,38.109],[-122.495,37.954],[-122.467,37.838],[-122.521,37.826],[-122.584,37.874],[-122.681,37.902],[-122.76,37.946],[-122.873,38.026],[-122.932,38.055],[-122.999,37.989],[-123.001,38.019],[-122.968,38.097],[-122.978,38.227],[-122.877,38.123],[-122.908,38.197],[-122.987,38.277],[-123.046,38.305],[-123.121,38.449],[-123.29,38.536],[-123.425,38.676],[-123.701,38.907],[-123.72,39.111],[-123.82,39.368],[-123.778,39.515],[-123.784,39.619],[-123.833,39.776],[-123.884,39.861],[-124.109,40.095],[-124.324,40.252],[-124.357,40.371],[-124.372,40.491],[-124.325,40.598],[-124.284,40.711],[-124.254,40.74],[-124.242,40.728],[-124.251,40.704],[-124.22,40.696],[-124.208,40.746],[-124.19,40.772],[-124.222,40.775],[-124.219,40.791],[-124.2,40.822],[-124.133,40.97],[-124.14,41.156],[-124.069,41.384],[-124.072,41.46],[-124.118,41.622],[-124.163,41.719],[-124.245,41.788],[-124.209,41.889],[-124.212,41.985],[-124.228,42.001],[-123.956,42.001],[-123.692,42.001],[-123.428,42.001],[-123.165,42.001],[-122.901,42.001],[-122.637,42.001],[-122.374,42.001],[-122.11,42.001],[-121.846,42.001],[-121.583,42.001],[-121.319,42.001],[-121.055,42.001],[-120.792,42.001],[-120.528,42.001],[-120.264,42.001],[-120.001,42.001],[-120.001,41.813],[-120.001,41.626],[-120.001,41.438],[-120.001,41.251],[-120.001,41.063],[-120.001,40.875],[-120.001,40.688],[-120.0,40.5],[-120.0,40.313],[-120.0,40.125],[-120.0,39.938],[-120.0,39.75],[-120.0,39.563],[-120.0,39.375],[-120.0,39.188],[-120.0,39.0],[-119.766,38.837],[-119.532,38.673],[-119.297,38.51],[-119.063,38.346],[-118.829,38.183],[-118.595,38.019],[-118.36,37.856],[-118.126,37.692],[-117.943,37.555],[-117.76,37.417],[-117.576,37.279],[-117.393,37.141],[-117.21,37.003],[-117.026,36.866],[-116.843,36.728],[-116.66,36.59],[-116.406,36.392],[-116.152,36.194],[-115.898,35.995],[-115.644,35.797],[-115.39,35.599],[-115.136,35.401],[-114.882,35.203],[-114.611,34.991]]],[[[-119.882,34.08],[-119.679,34.028],[-119.569,34.053],[-119.549,34.028],[-119.562,34.007],[-119.81,33.968],[-119.886,33.995],[-119.892,34.032],[-119.918,34.068],[-119.882,34.08]]],[[[-120.307,34.025],[-120.36,34.022],[-120.442,34.033],[-120.413,34.056],[-120.368,34.073],[-120.353,34.061],[-120.307,34.025]]],[[[-120.044,33.919],[-120.114,33.905],[-120.167,33.918],[-120.252,34.014],[-120.072,34.027],[-119.994,33.985],[-119.984,33.973],[-120.044,33.919]]],[[[-118.348,33.386],[-118.297,33.312],[-118.37,33.321],[-118.446,33.317],[-118.469,33.357],[-118.492,33.413],[-118.507,33.427],[-118.559,33.432],[-118.563,33.437],[-118.569,33.464],[-118.555,33.477],[-118.392,33.415],[-118.348,33.386]]],[[[-119.438,33.217],[-119.482,33.215],[-119.544,33.225],[-119.575,33.278],[-119.525,33.282],[-119.479,33.275],[-119.442,33.232],[-119.438,33.217]]],[[[-118.35,32.828],[-118.409,32.819],[-118.473,32.839],[-118.529,32.936],[-118.59,33.011],[-118.557,33.033],[-118.507,32.96],[-118.383,32.849],[-118.35,32.828]]]]}},{"type":"Feature","properties":{"name":"Delhi","country":"India"},"geometry":{"type":"Polygon","coordinates":[[[77.327,28.52],[77.27,28.51],[77.194,28.433],[77.101,28.476],[77.071,28.529],[76.873,28.519],[76.837,28.587],[76.947,28.696],[76.937,28.815],[77.068,28.882],[77.201,28.877],[77.227,28.784],[77.307,28.721],[77.338,28.626],[77.327,28.52]]]}},{"type":"Feature","properties":{"name":"Kerala","country":"India"},"geometry":{"type":"Polygon","coordinates":[[[74.894,12.751],[75.102,12.679],[75.312,12.469],[75.389,12.295],[75.426,12.292],[75.537,12.169],[75.629,12.102],[75.761,12.069],[75.776,12.01],[75.846,11.951],[75.961,11.929],[76.056,11.964],[76.115,11.857],[76.177,11.857],[76.317,11.747],[76.389,11.744],[76.416,11.667],[76.339,11.591],[76.241,11.604],[76.256,11.478],[76.409,11.437],[76.495,11.385],[76.534,11.313],[76.466,11.205],[76.641,11.209],[76.719,11.139],[76.69,10.933],[76.82,10.876],[76.89,10.78],[76.876,10.678],[76.821,10.633],[76.809,10.437],[76.842,10.311],[76.928,10.236],[76.986,10.231],[77.065,10.296],[77.191,10.351],[77.277,10.21],[77.224,10.058],[77.26,9.962],[77.226,9.859],[77.235,9.765],[77.188,9.613],[77.263,9.557],[77.341,9.58],[77.399,9.5],[77.312,9.301],[77.255,9.122],[77.165,9.001],[77.203,8.894],[77.249,8.859],[77.235,8.784],[77.179,8.695],[77.204,8.612],[77.279,8.526],[77.166,8.337],[77.11,8.284],[77.066,8.316],[76.967,8.407],[76.617,8.847],[76.553,8.903],[76.483,9.091],[76.472,9.161],[76.452,9.189],[76.419,9.208],[76.403,9.237],[76.325,9.452],[76.292,9.676],[76.242,9.927],[76.285,9.91],[76.343,9.827],[76.372,9.707],[76.376,9.54],[76.42,9.52],[76.459,9.536],[76.346,9.922],[76.249,10.018],[76.223,10.024],[76.196,10.086],[76.193,10.164],[76.201,10.201],[76.123,10.327],[76.096,10.402],[75.923,10.784],[75.845,11.058],[75.724,11.362],[75.646,11.468],[75.525,11.703],[75.423,11.812],[75.315,11.958],[75.23,12.023],[75.229,12.024],[75.197,12.058],[74.946,12.565],[74.894,12.751]]]}},{"type":"Feature","properties":{"name":"Odisha","country":"India"},"geometry":{"type":"Polygon","coordinates":[[[87.479,21.608],[87.201,21.545],[87.101,21.501],[86.954,21.365],[86.86,21.237],[86.842,21.106],[86.896,20.966],[86.939,20.745],[86.975,20.7],[86.925,20.62],[86.836,20.534],[86.763,20.419],[86.769,20.356],[86.75,20.313],[86.499,20.172],[86.446,20.089],[86.377,20.007],[86.294,20.054],[86.245,20.053],[86.312,19.988],[86.303,19.945],[86.279,19.919],[86.216,19.896],[85.853,19.792],[85.575,19.693],[85.497,19.697],[85.511,19.727],[85.56,19.753],[85.555,19.867],[85.504,19.888],[85.46,19.896],[85.249,19.758],[85.163,19.621],[85.181,19.595],[85.229,19.601],[85.371,19.679],[85.437,19.657],[85.442,19.627],[85.226,19.508],[84.771,19.125],[84.77,19.121],[84.695,19.161],[84.641,19.101],[84.525,19.033],[84.463,18.946],[84.318,18.809],[84.153,18.788],[84.071,18.818],[83.902,18.806],[83.854,18.86],[83.802,19.0],[83.706,19.001],[83.613,19.13],[83.573,19.07],[83.49,19.052],[83.424,18.964],[83.341,19.005],[83.327,18.93],[83.394,18.869],[83.202,18.742],[83.127,18.758],[83.028,18.641],[83.084,18.525],[83.037,18.469],[83.039,18.39],[82.904,18.355],[82.878,18.409],[82.78,18.417],[82.781,18.358],[82.587,18.244],[82.597,18.325],[82.511,18.422],[82.503,18.511],[82.449,18.522],[82.368,18.414],[82.361,18.292],[82.31,18.195],[82.353,18.155],[82.33,18.044],[82.24,17.993],[82.132,18.039],[82.042,18.043],[81.924,18.0],[81.759,17.909],[81.578,17.797],[81.394,17.807],[81.444,17.88],[81.543,18.262],[81.644,18.292],[81.741,18.358],[81.792,18.438],[81.913,18.545],[81.904,18.622],[81.969,18.686],[82.139,18.747],[82.169,18.879],[82.224,18.922],[82.225,19.015],[82.145,19.244],[82.169,19.387],[82.029,19.518],[82.029,19.776],[81.824,19.913],[81.868,20.047],[81.94,20.105],[82.046,20.018],[82.096,20.051],[82.228,19.959],[82.29,19.836],[82.381,19.886],[82.682,19.823],[82.695,20.001],[82.611,19.988],[82.416,20.067],[82.434,20.159],[82.422,20.428],[82.34,20.556],[82.367,20.657],[82.342,20.861],[82.454,20.847],[82.562,20.954],[82.668,21.155],[82.965,21.179],[83.078,21.115],[83.198,21.173],[83.279,21.359],[83.361,21.337],[83.381,21.4],[83.328,21.499],[83.352,21.577],[83.444,21.719],[83.473,21.807],[83.557,21.835],[83.571,21.923],[83.515,21.964],[83.546,22.102],[83.605,22.196],[83.733,22.262],[83.841,22.349],[83.946,22.371],[83.996,22.441],[83.97,22.539],[84.067,22.5],[84.148,22.387],[84.311,22.324],[84.421,22.331],[84.53,22.423],[84.734,22.427],[84.801,22.45],[84.908,22.422],[85.066,22.503],[85.1,22.394],[85.088,22.28],[84.985,22.113],[85.109,22.108],[85.232,22.035],[85.324,22.127],[85.425,22.164],[85.551,22.108],[85.679,22.076],[85.792,22.129],[85.785,22.012],[85.834,21.986],[85.916,22.022],[85.974,22.105],[85.965,22.245],[85.987,22.394],[85.939,22.501],[86.04,22.557],[86.102,22.5],[86.268,22.422],[86.366,22.33],[86.487,22.337],[86.687,22.218],[86.834,22.122],[86.987,22.067],[86.994,21.972],[87.059,21.907],[87.113,21.971],[87.191,21.956],[87.232,21.848],[87.275,21.814],[87.409,21.786],[87.479,21.608]]]}},{"type":"Feature","properties":{"name":"Karnataka","country":"India"},"geometry":{"type":"Polygon","coordinates":[[[74.894,12.751],[74.868,12.845],[74.803,12.977],[74.771,13.077],[74.682,13.507],[74.682,13.584],[74.671,13.668],[74.608,13.85],[74.499,14.046],[74.467,14.169],[74.467,14.217],[74.397,14.407],[74.382,14.495],[74.335,14.575],[74.28,14.65],[74.223,14.709],[74.097,14.89],[74.241,14.956],[74.26,15.098],[74.293,15.188],[74.241,15.238],[74.304,15.289],[74.237,15.472],[74.258,15.519],[74.227,15.63],[74.101,15.64],[74.186,15.766],[74.224,15.726],[74.331,15.762],[74.354,15.873],[74.429,15.994],[74.416,16.096],[74.47,16.11],[74.452,16.254],[74.366,16.293],[74.292,16.528],[74.353,16.544],[74.43,16.644],[74.525,16.624],[74.557,16.552],[74.666,16.606],[74.685,16.708],[74.867,16.776],[74.845,16.852],[74.922,16.889],[74.96,16.951],[75.043,16.953],[75.167,16.868],[75.243,16.902],[75.256,16.959],[75.371,16.984],[75.453,16.964],[75.554,17.015],[75.617,16.975],[75.647,17.091],[75.605,17.158],[75.622,17.221],[75.553,17.366],[75.613,17.472],[75.784,17.375],[75.87,17.416],[75.936,17.326],[76.095,17.378],[76.21,17.389],[76.344,17.352],[76.322,17.618],[76.391,17.637],[76.513,17.773],[76.593,17.771],[76.676,17.707],[76.756,17.826],[76.741,17.898],[76.839,17.884],[76.885,17.974],[76.893,18.144],[76.95,18.18],[77.088,18.197],[77.118,18.254],[77.231,18.334],[77.233,18.411],[77.302,18.46],[77.347,18.352],[77.461,18.282],[77.551,18.308],[77.6,18.115],[77.563,18.071],[77.621,17.987],[77.62,17.926],[77.5,17.812],[77.525,17.746],[77.464,17.713],[77.412,17.631],[77.493,17.578],[77.583,17.579],[77.599,17.487],[77.374,17.223],[77.465,17.043],[77.433,16.935],[77.411,16.721],[77.432,16.594],[77.371,16.524],[77.257,16.449],[77.294,16.407],[77.533,16.361],[77.491,16.262],[77.484,16.002],[77.446,15.953],[77.226,15.976],[77.144,15.961],[77.034,15.874],[77.025,15.781],[77.085,15.667],[77.0,15.614],[77.026,15.351],[77.105,15.308],[77.128,15.132],[77.08,15.037],[76.948,15.022],[76.764,15.094],[76.719,14.99],[76.822,14.921],[76.8,14.795],[76.762,14.764],[76.753,14.566],[76.83,14.479],[76.932,14.458],[76.862,14.347],[76.908,14.258],[77.045,14.232],[77.111,14.33],[77.257,14.334],[77.278,14.296],[77.384,14.262],[77.461,14.29],[77.468,14.192],[77.369,14.163],[77.328,14.052],[77.388,13.963],[77.332,13.908],[77.289,14.011],[77.112,14.005],[76.995,14.066],[76.974,14.156],[76.873,14.137],[76.943,14.061],[76.936,14.011],[77.01,13.905],[76.959,13.782],[77.032,13.746],[77.133,13.785],[77.103,13.85],[77.152,13.904],[77.292,13.848],[77.384,13.847],[77.443,13.702],[77.499,13.704],[77.593,13.767],[77.735,13.824],[77.879,13.917],[77.921,13.83],[78.033,13.885],[78.097,13.809],[78.068,13.699],[78.184,13.602],[78.375,13.58],[78.35,13.376],[78.381,13.323],[78.568,13.275],[78.516,13.089],[78.416,12.948],[78.286,12.843],[78.23,12.76],[78.056,12.846],[78.002,12.807],[77.895,12.873],[77.801,12.857],[77.765,12.719],[77.609,12.673],[77.569,12.56],[77.619,12.467],[77.561,12.34],[77.472,12.274],[77.492,12.205],[77.668,12.204],[77.769,12.12],[77.671,11.971],[77.49,11.926],[77.434,11.812],[77.354,11.784],[77.259,11.817],[77.122,11.793],[77.083,11.757],[76.997,11.826],[76.908,11.8],[76.821,11.626],[76.751,11.642],[76.605,11.631],[76.532,11.709],[76.465,11.715],[76.416,11.667],[76.389,11.744],[76.317,11.747],[76.177,11.857],[76.115,11.857],[76.056,11.964],[75.961,11.929],[75.846,11.951],[75.776,12.01],[75.761,12.069],[75.629,12.102],[75.537,12.169],[75.426,12.292],[75.389,12.295],[75.312,12.469],[75.102,12.679],[74.894,12.751]]]}},{"type":"Feature","properties":{"name":"Rajasthan","country":"India"},"geometry":{"type":"Polygon","coordinates":[[[71.048,24.688],[71.021,24.758],[70.951,24.892],[70.878,25.063],[70.8,25.206],[70.702,25.331],[70.652,25.423],[70.657,25.626],[70.648,25.667],[70.615,25.692],[70.57,25.706],[70.506,25.685],[70.449,25.681],[70.325,25.686],[70.265,25.707],[70.1,25.91],[70.079,25.99],[70.078,26.072],[70.133,26.215],[70.149,26.348],[70.157,26.471],[70.148,26.506],[70.115,26.548],[70.059,26.579],[69.911,26.586],[69.736,26.627],[69.601,26.699],[69.507,26.743],[69.481,26.771],[69.47,26.804],[69.494,26.954],[69.537,27.123],[69.568,27.175],[69.622,27.228],[69.661,27.264],[69.725,27.313],[69.896,27.474],[70.05,27.695],[70.145,27.849],[70.194,27.895],[70.244,27.934],[70.318,27.982],[70.404,28.025],[70.489,28.023],[70.569,27.984],[70.629,27.937],[70.649,27.835],[70.692,27.769],[70.737,27.729],[70.798,27.71],[70.875,27.714],[71.185,27.832],[71.29,27.855],[71.543,27.87],[71.717,27.915],[71.87,27.963],[71.889,28.047],[71.948,28.177],[72.129,28.346],[72.179,28.422],[72.234,28.566],[72.292,28.697],[72.342,28.752],[72.626,28.896],[72.903,29.029],[72.949,29.089],[73.128,29.364],[73.231,29.551],[73.258,29.611],[73.317,29.773],[73.382,29.934],[73.467,29.972],[73.658,30.033],[73.809,30.093],[73.887,30.162],[73.933,30.222],[73.97,30.137],[73.898,30.035],[73.916,29.98],[74.517,29.947],[74.547,29.861],[74.466,29.799],[74.506,29.737],[74.603,29.726],[74.575,29.59],[74.602,29.47],[74.537,29.441],[74.613,29.333],[74.759,29.364],[74.821,29.403],[74.907,29.378],[74.97,29.284],[75.107,29.238],[75.25,29.256],[75.328,29.296],[75.392,29.253],[75.393,29.106],[75.452,29.024],[75.515,28.996],[75.486,28.927],[75.594,28.643],[75.699,28.521],[75.887,28.404],[76.026,28.262],[76.032,28.188],[75.962,28.139],[75.993,28.051],[75.932,27.918],[76.0,27.843],[76.215,27.842],[76.18,27.91],[76.163,28.058],[76.267,28.077],[76.368,28.156],[76.453,28.163],[76.553,27.971],[76.658,28.017],[76.647,28.086],[76.857,28.229],[76.941,28.123],[76.921,28.034],[76.941,27.852],[76.901,27.734],[76.973,27.679],[77.041,27.807],[77.281,27.809],[77.346,27.542],[77.46,27.385],[77.606,27.324],[77.657,27.203],[77.591,27.131],[77.513,27.109],[77.628,26.973],[77.461,26.904],[77.511,26.833],[77.705,26.93],[77.977,26.904],[78.107,26.947],[78.223,26.937],[78.2,26.824],[78.101,26.795],[78.079,26.683],[78.013,26.696],[77.903,26.664],[77.831,26.576],[77.715,26.506],[77.617,26.483],[77.431,26.374],[77.323,26.352],[77.21,26.242],[77.125,26.238],[77.082,26.185],[76.908,26.099],[76.727,25.916],[76.652,25.923],[76.546,25.848],[76.478,25.72],[76.551,25.46],[76.652,25.379],[76.78,25.332],[76.913,25.309],[77.081,25.353],[77.202,25.356],[77.255,25.434],[77.359,25.407],[77.363,25.262],[77.399,25.212],[77.341,25.114],[77.187,25.128],[76.999,25.088],[76.861,25.034],[76.883,24.897],[76.781,24.837],[76.848,24.76],[76.967,24.737],[77.037,24.67],[77.035,24.538],[76.943,24.5],[76.881,24.562],[76.806,24.556],[76.815,24.36],[76.892,24.241],[76.87,24.182],[76.767,24.16],[76.573,24.273],[76.543,24.215],[76.456,24.265],[76.23,24.278],[76.133,24.329],[76.117,24.134],[75.999,24.051],[75.998,23.984],[75.899,23.918],[75.776,23.883],[75.7,23.793],[75.597,23.818],[75.578,23.876],[75.49,23.94],[75.539,24.041],[75.622,23.995],[75.73,24.001],[75.805,24.119],[75.748,24.19],[75.795,24.252],[75.734,24.424],[75.792,24.494],[75.875,24.514],[75.869,24.599],[75.759,24.777],[75.649,24.738],[75.448,24.703],[75.204,24.725],[75.172,24.763],[75.318,24.955],[75.235,25.04],[75.133,25.04],[75.084,24.889],[74.981,24.863],[74.876,24.919],[74.815,24.917],[74.838,24.797],[74.974,24.786],[74.965,24.694],[74.87,24.666],[74.807,24.736],[74.712,24.524],[74.847,24.436],[74.766,24.359],[74.759,24.257],[74.87,24.236],[74.893,24.134],[74.968,24.033],[74.908,23.897],[74.907,23.791],[74.939,23.687],[74.823,23.5],[74.648,23.431],[74.57,23.368],[74.536,23.251],[74.658,23.226],[74.716,23.179],[74.612,23.113],[74.476,23.062],[74.323,23.036],[74.233,23.156],[74.109,23.191],[74.106,23.248],[73.96,23.359],[73.904,23.333],[73.812,23.435],[73.711,23.415],[73.619,23.452],[73.621,23.583],[73.511,23.684],[73.362,23.784],[73.364,23.889],[73.424,23.941],[73.354,24.105],[73.246,24.016],[73.079,24.204],[73.137,24.336],[73.095,24.504],[73.0,24.493],[72.959,24.39],[72.897,24.361],[72.747,24.381],[72.668,24.461],[72.556,24.507],[72.501,24.496],[72.275,24.568],[72.262,24.608],[72.099,24.657],[72.051,24.708],[71.948,24.663],[71.751,24.678],[71.652,24.658],[71.546,24.688],[71.378,24.647],[71.251,24.637],[71.048,24.688]]]}},{"type":"Feature","properties":{"name":"Uttar Pradesh","country":"India"},"geometry":{"type":"Polygon","coordinates":[[[80.071,28.83],[80.15,28.776],[80.227,28.723],[80.325,28.666],[80.419,28.612],[80.479,28.605],[80.496,28.636],[80.518,28.665],[80.587,28.65],[80.671,28.596],[80.726,28.554],[80.751,28.54],[80.896,28.469],[81.017,28.41],[81.169,28.335],[81.206,28.289],[81.239,28.241],[81.311,28.176],[81.486,28.062],[81.636,27.98],[81.757,27.914],[81.853,27.867],[81.897,27.874],[81.945,27.899],[81.988,27.914],[82.037,27.901],[82.112,27.865],[82.288,27.757],[82.451,27.672],[82.63,27.687],[82.677,27.673],[82.711,27.597],[82.733,27.519],[82.933,27.468],[83.064,27.445],[83.214,27.402],[83.29,27.371],[83.369,27.41],[83.384,27.445],[83.447,27.465],[83.552,27.456],[83.747,27.396],[83.829,27.378],[83.942,27.222],[83.938,27.164],[84.023,27.06],[84.071,26.924],[84.149,26.876],[84.241,26.874],[84.246,26.757],[84.306,26.744],[84.383,26.642],[84.099,26.65],[84.054,26.565],[83.92,26.533],[83.955,26.454],[84.026,26.469],[84.178,26.404],[84.187,26.293],[83.993,26.241],[84.065,26.104],[84.15,26.066],[84.261,25.931],[84.374,25.94],[84.42,25.89],[84.532,25.862],[84.606,25.8],[84.601,25.747],[84.487,25.701],[84.373,25.765],[84.315,25.742],[84.324,25.659],[84.239,25.648],[84.213,25.728],[84.143,25.736],[83.904,25.529],[83.775,25.445],[83.384,25.236],[83.334,25.173],[83.323,25.068],[83.36,25.009],[83.36,24.863],[83.509,24.762],[83.531,24.704],[83.523,24.53],[83.402,24.498],[83.454,24.362],[83.337,24.14],[83.206,23.944],[83.089,23.911],[82.964,23.914],[82.801,23.999],[82.679,24.167],[82.733,24.214],[82.767,24.386],[82.734,24.42],[82.734,24.552],[82.808,24.566],[82.772,24.668],[82.692,24.72],[82.624,24.692],[82.427,24.719],[82.424,24.648],[82.303,24.638],[82.319,24.702],[82.033,24.859],[81.881,24.922],[81.817,25.036],[81.585,25.08],[81.537,25.2],[81.361,25.157],[81.243,25.17],[81.239,25.098],[81.185,24.973],[81.098,24.909],[80.999,24.966],[80.893,24.984],[80.779,24.971],[80.859,25.188],[80.806,25.212],[80.718,25.082],[80.647,25.07],[80.58,25.148],[80.515,25.041],[80.458,25.015],[80.288,25.016],[80.265,25.064],[80.422,25.181],[80.395,25.247],[80.326,25.282],[80.284,25.414],[80.191,25.413],[80.125,25.351],[80.015,25.331],[79.852,25.248],[79.863,25.153],[79.661,25.148],[79.542,25.177],[79.468,25.104],[79.339,25.147],[79.425,25.257],[79.295,25.259],[79.269,25.164],[79.109,25.195],[79.024,25.175],[78.983,25.237],[78.885,25.266],[78.955,25.386],[78.919,25.505],[78.853,25.434],[78.749,25.426],[78.728,25.346],[78.597,25.414],[78.516,25.266],[78.61,25.136],[78.64,24.964],[78.732,24.815],[78.715,24.685],[78.75,24.63],[78.879,24.613],[78.955,24.393],[78.826,24.23],[78.747,24.279],[78.656,24.295],[78.489,24.411],[78.386,24.301],[78.33,24.342],[78.35,24.408],[78.278,24.453],[78.229,24.533],[78.265,24.583],[78.261,24.693],[78.169,24.865],[78.337,25.023],[78.366,25.186],[78.262,25.412],[78.33,25.465],[78.371,25.553],[78.558,25.576],[78.715,25.626],[78.754,25.674],[78.74,25.79],[78.808,25.842],[78.954,26.11],[78.963,26.278],[79.061,26.355],[79.028,26.498],[78.974,26.572],[78.936,26.694],[78.842,26.712],[78.693,26.798],[78.564,26.758],[78.371,26.851],[78.2,26.824],[78.223,26.937],[78.107,26.947],[77.977,26.904],[77.705,26.93],[77.511,26.833],[77.461,26.904],[77.628,26.973],[77.513,27.109],[77.591,27.131],[77.657,27.203],[77.606,27.324],[77.46,27.385],[77.346,27.542],[77.281,27.809],[77.424,27.891],[77.48,27.898],[77.526,27.974],[77.468,28.047],[77.529,28.253],[77.467,28.315],[77.497,28.393],[77.327,28.52],[77.338,28.626],[77.307,28.721],[77.227,28.784],[77.201,28.877],[77.196,28.998],[77.141,29.13],[77.131,29.281],[77.15,29.403],[77.065,29.57],[77.088,29.659],[77.18,29.804],[77.23,29.977],[77.285,30.038],[77.57,30.278],[77.585,30.383],[77.662,30.395],[77.751,30.326],[77.929,30.244],[77.835,30.131],[77.746,29.977],[77.747,29.878],[77.784,29.742],[77.831,29.66],[77.983,29.719],[78.107,29.655],[78.189,29.707],[78.155,29.925],[78.228,29.947],[78.381,29.762],[78.479,29.722],[78.643,29.538],[78.907,29.388],[78.722,29.284],[78.868,29.215],[78.95,29.127],[79.056,29.152],[79.171,29.051],[79.296,28.972],[79.371,28.97],[79.444,28.85],[79.526,28.878],[79.699,28.85],[79.743,28.885],[79.841,28.855],[79.844,28.805],[80.001,28.737],[80.071,28.83]]]}},{"type":"Feature","properties":{"name":"Bihar","country":"India"},"geometry":{"type":"Polygon","coordinates":[[[83.829,27.378],[83.897,27.435],[84.025,27.462],[84.091,27.491],[84.23,27.428],[84.481,27.348],[84.61,27.299],[84.641,27.25],[84.655,27.204],[84.654,27.092],[84.685,27.041],[84.937,26.927],[85.02,26.879],[85.087,26.863],[85.125,26.861],[85.152,26.847],[85.174,26.782],[85.192,26.767],[85.24,26.75],[85.293,26.741],[85.456,26.797],[85.568,26.84],[85.648,26.829],[85.7,26.782],[85.707,26.713],[85.737,26.64],[85.795,26.604],[85.856,26.6],[86.007,26.649],[86.129,26.612],[86.242,26.598],[86.366,26.574],[86.414,26.556],[86.544,26.496],[86.701,26.435],[86.762,26.442],[87.016,26.555],[87.038,26.542],[87.09,26.433],[87.167,26.394],[87.287,26.36],[87.414,26.423],[87.513,26.405],[87.633,26.399],[87.749,26.429],[87.849,26.437],[87.995,26.382],[88.027,26.395],[88.055,26.43],[88.094,26.537],[88.195,26.501],[88.282,26.428],[88.297,26.336],[88.18,26.286],[88.08,26.193],[87.979,26.146],[87.831,26.011],[87.805,25.874],[87.911,25.765],[88.046,25.669],[88.043,25.547],[87.956,25.534],[87.768,25.436],[87.838,25.278],[87.784,25.214],[87.726,25.252],[87.599,25.267],[87.523,25.324],[87.407,25.181],[87.292,25.174],[87.266,25.072],[87.186,25.062],[87.117,24.971],[87.119,24.851],[87.078,24.745],[87.05,24.597],[86.925,24.614],[86.89,24.532],[86.755,24.588],[86.702,24.548],[86.586,24.561],[86.494,24.48],[86.439,24.34],[86.276,24.435],[86.29,24.552],[86.155,24.556],[86.098,24.69],[86.033,24.712],[85.912,24.698],[85.831,24.771],[85.746,24.77],[85.647,24.649],[85.662,24.569],[85.578,24.558],[85.526,24.502],[85.391,24.509],[85.281,24.487],[84.961,24.348],[84.889,24.373],[84.798,24.497],[84.588,24.394],[84.519,24.308],[84.472,24.307],[84.312,24.451],[84.305,24.531],[84.096,24.504],[84.044,24.624],[83.918,24.544],[83.788,24.537],[83.696,24.506],[83.523,24.53],[83.531,24.704],[83.509,24.762],[83.36,24.863],[83.36,25.009],[83.323,25.068],[83.334,25.173],[83.384,25.236],[83.775,25.445],[83.904,25.529],[84.143,25.736],[84.213,25.728],[84.239,25.648],[84.324,25.659],[84.315,25.742],[84.373,25.765],[84.487,25.701],[84.601,25.747],[84.606,25.8],[84.532,25.862],[84.42,25.89],[84.374,25.94],[84.261,25.931],[84.15,26.066],[84.065,26.104],[83.993,26.241],[84.187,26.293],[84.178,26.404],[84.026,26.469],[83.955,26.454],[83.92,26.533],[84.054,26.565],[84.099,26.65],[84.383,26.642],[84.306,26.744],[84.246,26.757],[84.241,26.874],[84.149,26.876],[84.071,26.924],[84.023,27.06],[83.938,27.164],[83.942,27.222],[83.829,27.378]]]}},{"type":"Feature","properties":{"name":"Tamil Nadu","country":"India"},"geometry":{"type":"Polygon","coordinates":[[[79.85,10.769],[79.838,10.323],[79.757,10.304],[79.667,10.3],[79.589,10.312],[79.532,10.33],[79.391,10.306],[79.315,10.257],[79.254,10.175],[79.258,10.035],[78.996,9.683],[78.94,9.566],[78.919,9.453],[78.953,9.394],[79.02,9.333],[79.107,9.309],[79.275,9.285],[79.356,9.252],[79.411,9.192],[79.213,9.256],[78.98,9.269],[78.421,9.105],[78.275,8.99],[78.192,8.891],[78.136,8.663],[78.126,8.511],[78.06,8.385],[77.77,8.19],[77.587,8.13],[77.518,8.078],[77.301,8.145],[77.11,8.284],[77.166,8.337],[77.279,8.526],[77.204,8.612],[77.179,8.695],[77.235,8.784],[77.249,8.859],[77.203,8.894],[77.165,9.001],[77.255,9.122],[77.312,9.301],[77.399,9.5],[77.341,9.58],[77.263,9.557],[77.188,9.613],[77.235,9.765],[77.226,9.859],[77.26,9.962],[77.224,10.058],[77.277,10.21],[77.191,10.351],[77.065,10.296],[76.986,10.231],[76.928,10.236],[76.842,10.311],[76.809,10.437],[76.821,10.633],[76.876,10.678],[76.89,10.78],[76.82,10.876],[76.69,10.933],[76.719,11.139],[76.641,11.209],[76.466,11.205],[76.534,11.313],[76.495,11.385],[76.409,11.437],[76.256,11.478],[76.241,11.604],[76.339,11.591],[76.416,11.667],[76.465,11.715],[76.532,11.709],[76.605,11.631],[76.751,11.642],[76.821,11.626],[76.908,11.8],[76.997,11.826],[77.083,11.757],[77.122,11.793],[77.259,11.817],[77.354,11.784],[77.434,11.812],[77.49,11.926],[77.671,11.971],[77.769,12.12],[77.668,12.204],[77.492,12.205],[77.472,12.274],[77.561,12.34],[77.619,12.467],[77.569,12.56],[77.609,12.673],[77.765,12.719],[77.801,12.857],[77.895,12.873],[78.002,12.807],[78.056,12.846],[78.23,12.76],[78.353,12.642],[78.419,12.633],[78.583,12.778],[78.645,12.992],[78.736,13.061],[78.944,13.093],[79.078,13.036],[79.162,13.045],[79.251,13.148],[79.315,13.132],[79.42,13.22],[79.45,13.331],[79.544,13.324],[79.572,13.284],[79.668,13.291],[79.697,13.236],[79.785,13.224],[79.816,13.295],[79.957,13.366],[79.962,13.417],[80.098,13.464],[80.231,13.468],[80.29,13.437],[80.342,13.361],[80.229,12.69],[80.143,12.452],[80.037,12.296],[79.982,12.235],[79.858,11.989],[79.848,11.954],[79.791,11.917],[79.686,12.0],[79.727,11.842],[79.813,11.832],[79.771,11.69],[79.754,11.575],[79.793,11.447],[79.749,11.371],[79.693,11.313],[79.799,11.339],[79.835,11.269],[79.849,11.197],[79.849,10.98],[79.737,10.986],[79.705,10.91],[79.767,10.889],[79.85,10.769]]]}},{"type":"Feature","properties":{"name":"Maharashtra","country":"India"},"geometry":{"type":"Polygon","coordinates":[[[74.104,15.645],[74.095,15.643],[73.992,15.611],[73.942,15.634],[73.908,15.721],[73.808,15.775],[73.679,15.711],[73.608,15.871],[73.476,16.054],[73.454,16.152],[73.338,16.46],[73.239,17.199],[73.149,17.527],[73.156,17.622],[73.047,17.907],[72.994,18.098],[72.972,18.259],[72.943,18.366],[72.917,18.576],[72.875,18.643],[72.871,18.683],[72.899,18.779],[72.977,18.927],[73.006,19.021],[72.972,19.153],[72.901,19.015],[72.835,18.976],[72.803,19.079],[72.803,19.219],[72.795,19.252],[72.812,19.299],[72.987,19.277],[72.788,19.363],[72.764,19.413],[72.756,19.451],[72.799,19.52],[72.727,19.578],[72.697,19.757],[72.676,19.798],[72.668,19.831],[72.709,20.078],[72.947,20.127],[72.997,20.04],[73.161,20.047],[73.166,20.115],[73.243,20.139],[73.272,20.193],[73.364,20.178],[73.394,20.27],[73.361,20.369],[73.459,20.538],[73.404,20.67],[73.476,20.679],[73.7,20.562],[73.792,20.606],[73.811,20.677],[73.909,20.776],[73.903,20.884],[73.868,20.975],[73.695,21.123],[73.777,21.217],[73.8,21.281],[73.919,21.292],[73.96,21.394],[74.053,21.466],[74.109,21.452],[74.292,21.514],[74.192,21.546],[73.996,21.555],[73.821,21.508],[73.752,21.611],[73.829,21.651],[73.809,21.836],[73.918,21.867],[74.061,21.94],[74.129,21.952],[74.205,21.925],[74.284,21.945],[74.408,22.023],[74.486,21.946],[74.512,21.727],[74.708,21.611],[74.894,21.612],[75.048,21.554],[75.13,21.438],[75.312,21.381],[75.535,21.372],[75.814,21.383],[75.878,21.4],[76.083,21.368],[76.143,21.193],[76.109,21.153],[76.187,21.086],[76.287,21.075],[76.437,21.108],[76.498,21.18],[76.614,21.202],[76.654,21.251],[76.633,21.341],[76.73,21.413],[76.786,21.502],[76.794,21.577],[76.917,21.618],[77.029,21.694],[77.116,21.724],[77.219,21.701],[77.333,21.774],[77.461,21.77],[77.552,21.697],[77.555,21.542],[77.457,21.549],[77.433,21.499],[77.482,21.424],[77.578,21.384],[77.713,21.38],[77.788,21.423],[77.871,21.398],[78.029,21.438],[78.193,21.551],[78.413,21.606],[78.428,21.508],[78.514,21.527],[78.696,21.475],[78.904,21.509],[78.922,21.572],[79.216,21.655],[79.24,21.713],[79.413,21.69],[79.533,21.619],[79.552,21.55],[79.65,21.582],[79.798,21.588],[79.84,21.534],[80.005,21.548],[80.187,21.639],[80.31,21.58],[80.418,21.447],[80.626,21.326],[80.679,21.351],[80.626,21.243],[80.485,21.168],[80.435,20.999],[80.481,20.932],[80.552,20.919],[80.573,20.698],[80.503,20.633],[80.622,20.601],[80.622,20.326],[80.424,20.234],[80.426,20.146],[80.531,20.135],[80.557,20.048],[80.531,19.921],[80.425,19.893],[80.538,19.811],[80.566,19.74],[80.676,19.677],[80.713,19.593],[80.831,19.547],[80.894,19.484],[80.832,19.345],[80.717,19.263],[80.617,19.319],[80.576,19.392],[80.397,19.234],[80.367,19.117],[80.272,18.979],[80.344,18.851],[80.275,18.777],[80.27,18.714],[80.091,18.697],[80.002,18.786],[79.96,18.867],[79.934,19.053],[79.862,19.081],[79.944,19.169],[79.931,19.212],[79.965,19.402],[79.931,19.483],[79.865,19.509],[79.796,19.594],[79.735,19.603],[79.539,19.534],[79.42,19.536],[79.266,19.59],[79.198,19.462],[79.059,19.547],[79.024,19.542],[78.873,19.65],[78.848,19.725],[78.78,19.777],[78.712,19.774],[78.534,19.825],[78.478,19.799],[78.383,19.866],[78.322,19.863],[78.384,19.685],[78.333,19.643],[78.303,19.483],[78.24,19.46],[78.174,19.375],[78.168,19.264],[78.064,19.264],[77.992,19.323],[77.92,19.332],[77.855,19.228],[77.834,19.121],[77.752,19.046],[77.912,18.835],[77.839,18.81],[77.781,18.704],[77.703,18.669],[77.68,18.57],[77.592,18.548],[77.503,18.382],[77.551,18.308],[77.461,18.282],[77.347,18.352],[77.302,18.46],[77.233,18.411],[77.231,18.334],[77.118,18.254],[77.088,18.197],[76.95,18.18],[76.893,18.144],[76.885,17.974],[76.839,17.884],[76.741,17.898],[76.756,17.826],[76.676,17.707],[76.593,17.771],[76.513,17.773],[76.391,17.637],[76.322,17.618],[76.344,17.352],[76.21,17.389],[76.095,17.378],[75.936,17.326],[75.87,17.416],[75.784,17.375],[75.613,17.472],[75.553,17.366],[75.622,17.221],[75.605,17.158],[75.647,17.091],[75.617,16.975],[75.554,17.015],[75.453,16.964],[75.371,16.984],[75.256,16.959],[75.243,16.902],[75.167,16.868],[75.043,16.953],[74.96,16.951],[74.922,16.889],[74.845,16.852],[74.867,16.776],[74.685,16.708],[74.666,16.606],[74.557,16.552],[74.525,16.624],[74.43,16.644],[74.353,16.544],[74.292,16.528],[74.366,16.293],[74.452,16.254],[74.47,16.11],[74.416,16.096],[74.429,15.994],[74.354,15.873],[74.331,15.762],[74.224,15.726],[74.186,15.766],[74.104,15.645]]]}},{"type":"Feature","properties":{"name":"Thailand","country":"Thailand"},"geometry":{"type":"MultiPolygon","coordinates":[[[[102.606,11.677],[102.59,11.572],[102.533,11.615],[102.546,11.668],[102.569,11.692],[102.606,11.677]]],[[[102.427,11.989],[102.43,11.965],[102.378,11.983],[102.36,11.974],[102.302,11.981],[102.273,12.119],[102.277,12.152],[102.319,12.142],[102.378,12.073],[102.408,12.025],[102.427,11.989]]],[[[98.409,7.902],[98.398,7.828],[98.357,7.829],[98.316,7.782],[98.296,7.776],[98.262,7.926],[98.301,8.136],[98.322,8.166],[98.351,8.111],[98.435,8.086],[98.399,7.965],[98.409,7.902]]],[[[100.122,20.317],[100.115,20.258],[100.14,20.245],[100.174,20.273],[100.218,20.34],[100.266,20.377],[100.318,20.386],[100.373,20.34],[100.432,20.241],[100.492,20.184],[100.52,20.178],[100.54,20.132],[100.543,20.089],[100.515,19.996],[100.466,19.889],[100.398,19.756],[100.42,19.644],[100.514,19.553],[100.625,19.5],[100.744,19.515],[100.807,19.542],[100.858,19.585],[100.906,19.605],[100.967,19.611],[101.155,19.579],[101.212,19.548],[101.221,19.487],[101.198,19.328],[101.227,19.212],[101.28,19.089],[101.286,18.977],[101.221,18.793],[101.166,18.618],[101.106,18.534],[101.06,18.479],[101.047,18.442],[101.051,18.407],[101.093,18.355],[101.138,18.287],[101.149,18.222],[101.144,18.143],[101.113,18.034],[100.999,17.797],[100.908,17.584],[100.956,17.541],[101.046,17.51],[101.105,17.48],[101.167,17.499],[101.3,17.625],[101.414,17.719],[101.555,17.812],[101.564,17.821],[101.688,17.889],[101.744,17.953],[101.775,18.033],[101.819,18.065],[101.875,18.046],[101.947,18.081],[102.035,18.17],[102.101,18.211],[102.148,18.204],[102.232,18.149],[102.352,18.046],[102.459,17.985],[102.553,17.965],[102.598,17.927],[102.596,17.87],[102.617,17.833],[102.661,17.818],[102.68,17.824],[102.675,17.852],[102.718,17.892],[102.807,17.946],[102.899,17.977],[102.991,17.986],[103.051,18.029],[103.091,18.138],[103.149,18.222],[103.2,18.259],[103.263,18.278],[103.28,18.305],[103.249,18.339],[103.252,18.373],[103.288,18.408],[103.367,18.423],[103.488,18.418],[103.63,18.383],[103.792,18.317],[103.899,18.295],[103.95,18.319],[104.049,18.217],[104.196,17.988],[104.323,17.816],[104.428,17.699],[104.539,17.609],[104.656,17.547],[104.74,17.462],[104.816,17.3],[104.759,17.077],[104.744,16.884],[104.751,16.648],[104.819,16.466],[104.95,16.34],[105.026,16.238],[105.047,16.16],[105.149,16.094],[105.331,16.038],[105.406,15.987],[105.376,15.942],[105.373,15.89],[105.399,15.83],[105.462,15.78],[105.562,15.741],[105.622,15.7],[105.641,15.657],[105.639,15.586],[105.616,15.488],[105.574,15.413],[105.513,15.361],[105.506,15.32],[105.49,15.257],[105.49,15.128],[105.533,15.042],[105.547,14.932],[105.523,14.843],[105.5,14.661],[105.497,14.591],[105.476,14.53],[105.423,14.472],[105.342,14.417],[105.244,14.368],[105.183,14.346],[105.169,14.336],[105.126,14.281],[105.074,14.227],[105.034,14.227],[105.003,14.254],[104.982,14.289],[104.97,14.366],[104.879,14.404],[104.779,14.428],[104.576,14.39],[104.412,14.37],[104.228,14.396],[104.054,14.363],[103.982,14.358],[103.899,14.363],[103.818,14.362],[103.742,14.374],[103.6,14.421],[103.546,14.417],[103.432,14.379],[103.313,14.351],[103.199,14.333],[103.031,14.253],[102.909,14.137],[102.873,14.055],[102.813,13.972],[102.729,13.842],[102.62,13.717],[102.545,13.66],[102.566,13.626],[102.547,13.586],[102.429,13.568],[102.336,13.56],[102.32,13.54],[102.331,13.288],[102.363,13.193],[102.423,13.078],[102.462,13.015],[102.491,12.828],[102.5,12.67],[102.63,12.57],[102.703,12.494],[102.756,12.426],[102.737,12.383],[102.706,12.256],[102.737,12.09],[102.918,11.732],[102.934,11.707],[102.912,11.704],[102.884,11.773],[102.792,11.889],[102.763,12.012],[102.655,12.149],[102.594,12.203],[102.575,12.158],[102.54,12.109],[102.434,12.179],[102.343,12.253],[102.259,12.394],[102.248,12.361],[102.23,12.332],[102.134,12.443],[102.034,12.532],[101.945,12.564],[101.889,12.593],[101.836,12.64],[101.724,12.689],[101.445,12.619],[101.09,12.674],[100.954,12.621],[100.898,12.654],[100.863,12.715],[100.896,12.818],[100.904,13.035],[100.946,13.187],[100.926,13.303],[100.947,13.358],[100.963,13.432],[100.907,13.462],[100.656,13.521],[100.603,13.568],[100.536,13.514],[100.236,13.484],[100.122,13.44],[100.017,13.353],[99.991,13.243],[100.051,13.171],[100.09,13.046],[99.982,12.771],[99.964,12.69],[100.006,12.355],[99.989,12.171],[99.93,12.047],[99.837,11.937],[99.799,11.749],[99.725,11.662],[99.627,11.463],[99.561,11.215],[99.514,11.101],[99.487,10.89],[99.285,10.569],[99.237,10.388],[99.165,10.32],[99.19,10.266],[99.195,10.175],[99.169,9.934],[99.161,9.734],[99.191,9.627],[99.288,9.415],[99.265,9.353],[99.254,9.265],[99.335,9.225],[99.394,9.214],[99.724,9.314],[99.836,9.288],[99.878,9.195],[99.905,9.113],[99.961,8.671],[99.99,8.589],[100.056,8.511],[100.129,8.428],[100.154,8.443],[100.159,8.474],[100.163,8.508],[100.229,8.425],[100.279,8.269],[100.454,7.442],[100.504,7.337],[100.545,7.227],[100.439,7.281],[100.411,7.464],[100.38,7.542],[100.343,7.553],[100.284,7.552],[100.28,7.584],[100.324,7.644],[100.317,7.716],[100.257,7.775],[100.158,7.728],[100.161,7.599],[100.205,7.501],[100.371,7.28],[100.424,7.188],[100.49,7.161],[100.586,7.176],[100.702,7.082],[100.793,6.995],[101.018,6.861],[101.154,6.875],[101.302,6.908],[101.401,6.9],[101.498,6.865],[101.614,6.754],[101.799,6.475],[102.101,6.242],[102.068,6.185],[102.055,6.097],[101.936,5.979],[101.917,5.911],[101.874,5.825],[101.791,5.779],[101.72,5.771],[101.678,5.779],[101.65,5.796],[101.601,5.877],[101.577,5.902],[101.556,5.908],[101.404,5.852],[101.257,5.789],[101.23,5.734],[101.191,5.669],[101.148,5.643],[101.114,5.637],[101.082,5.675],[101.025,5.725],[100.982,5.771],[100.993,5.846],[101.076,5.956],[101.087,6.034],[101.076,6.166],[101.054,6.243],[101.029,6.245],[100.989,6.258],[100.874,6.245],[100.817,6.332],[100.794,6.426],[100.754,6.46],[100.716,6.481],[100.629,6.448],[100.564,6.468],[100.345,6.55],[100.261,6.683],[100.217,6.687],[100.177,6.672],[100.161,6.642],[100.138,6.489],[100.119,6.442],[99.869,6.75],[99.696,6.877],[99.72,7.106],[99.668,7.151],[99.602,7.155],[99.553,7.219],[99.597,7.356],[99.529,7.329],[99.435,7.334],[99.359,7.372],[99.3,7.561],[99.264,7.619],[99.183,7.718],[99.078,7.718],[99.043,7.766],[99.051,7.888],[98.974,7.963],[98.872,8.024],[98.789,8.06],[98.704,8.257],[98.636,8.305],[98.579,8.344],[98.5,8.318],[98.474,8.247],[98.421,8.178],[98.361,8.187],[98.305,8.226],[98.238,8.423],[98.227,8.544],[98.242,8.768],[98.326,8.969],[98.371,9.291],[98.443,9.493],[98.493,9.561],[98.562,9.838],[98.703,10.19],[98.718,10.266],[98.747,10.351],[98.768,10.431],[98.775,10.557],[98.757,10.624],[98.757,10.661],[98.787,10.708],[98.887,10.788],[99.025,10.92],[99.19,11.105],[99.359,11.389],[99.443,11.554],[99.478,11.613],[99.515,11.631],[99.573,11.687],[99.612,11.75],[99.615,11.781],[99.523,12.09],[99.463,12.19],[99.432,12.309],[99.416,12.395],[99.394,12.474],[99.405,12.548],[99.372,12.594],[99.297,12.653],[99.22,12.74],[99.174,12.882],[99.174,12.961],[99.124,13.031],[99.107,13.104],[99.137,13.173],[99.176,13.233],[99.172,13.497],[99.156,13.576],[99.137,13.717],[99.086,13.823],[99.015,13.947],[98.934,14.05],[98.721,14.236],[98.57,14.36],[98.495,14.473],[98.4,14.603],[98.332,14.696],[98.246,14.815],[98.202,14.976],[98.178,15.147],[98.191,15.204],[98.232,15.241],[98.286,15.272],[98.329,15.279],[98.452,15.357],[98.537,15.351],[98.557,15.368],[98.565,15.404],[98.554,15.56],[98.558,15.769],[98.574,15.939],[98.592,16.051],[98.818,16.181],[98.866,16.237],[98.888,16.298],[98.888,16.352],[98.869,16.394],[98.835,16.418],[98.689,16.305],[98.661,16.33],[98.594,16.515],[98.565,16.571],[98.523,16.638],[98.478,16.732],[98.471,16.895],[98.439,16.976],[98.257,17.148],[98.175,17.24],[98.063,17.373],[97.929,17.533],[97.793,17.681],[97.729,17.776],[97.706,17.797],[97.699,17.834],[97.74,17.935],[97.72,18.037],[97.652,18.174],[97.622,18.258],[97.632,18.29],[97.599,18.303],[97.524,18.296],[97.451,18.36],[97.381,18.494],[97.374,18.518],[97.397,18.518],[97.485,18.494],[97.515,18.498],[97.577,18.529],[97.672,18.561],[97.728,18.572],[97.746,18.588],[97.754,18.621],[97.706,18.932],[97.714,18.996],[97.804,19.13],[97.794,19.266],[97.817,19.46],[97.916,19.593],[97.991,19.654],[98.015,19.75],[98.049,19.77],[98.111,19.762],[98.239,19.691],[98.294,19.687],[98.371,19.689],[98.455,19.694],[98.494,19.701],[98.761,19.771],[98.82,19.778],[98.876,19.77],[98.917,19.773],[98.958,19.805],[98.987,19.861],[99.021,20.042],[99.04,20.074],[99.074,20.099],[99.131,20.117],[99.197,20.115],[99.284,20.08],[99.338,20.079],[99.399,20.093],[99.452,20.118],[99.486,20.15],[99.502,20.188],[99.487,20.261],[99.448,20.352],[99.459,20.363],[99.532,20.343],[99.639,20.32],[99.72,20.325],[99.773,20.341],[99.825,20.384],[99.89,20.424],[99.954,20.415],[100.004,20.38],[100.122,20.317]]],[[[100.074,9.697],[100.064,9.68],[100.026,9.712],[99.998,9.748],[99.983,9.794],[100.043,9.792],[100.073,9.749],[100.074,9.697]]],[[[100.071,9.586],[100.075,9.529],[100.054,9.461],[99.962,9.422],[99.931,9.476],[99.94,9.56],[99.954,9.581],[100.043,9.577],[100.071,9.586]]],[[[99.663,6.522],[99.644,6.516],[99.607,6.597],[99.654,6.714],[99.701,6.571],[99.663,6.522]]],[[[98.592,7.934],[98.58,7.917],[98.529,8.109],[98.604,8.057],[98.592,7.934]]],[[[98.308,9.051],[98.251,9.041],[98.258,9.095],[98.274,9.13],[98.301,9.139],[98.312,9.08],[98.308,9.051]]],[[[99.078,7.592],[99.104,7.471],[99.068,7.496],[99.038,7.548],[99.038,7.626],[99.045,7.637],[99.078,7.592]]]]}},{"type":"Feature","properties":{"name":"Telangana","country":"India"},"geometry":{"type":"Polygon","coordinates":[[[77.28791252254626,16.4089004623898],[77.24203688876905,16.47351391883969],[77.41636429712244,16.51750605940132],[77.45306480414422,16.616488375664986],[77.4255394238779,16.720969709498853],[77.47600262103282,16.788332674733844],[77.4591815553145,16.88456548221241],[77.49741125012885,17.042662237355763],[77.46376911869223,17.110025202590755],[77.36437191217495,17.158141606330037],[77.37966379010068,17.22275506277993],[77.48364855999569,17.354731484464814],[77.51270312805458,17.430342976055115],[77.6855013486154,17.51145348521562],[77.44388967738877,17.584315468020815],[77.45306480414422,17.694295819424887],[77.53717013273577,17.77953059176304],[77.58610414209812,17.907382750270276],[77.65644678055651,17.969246697935066],[77.54787444728377,18.055856224665774],[77.5983376444387,18.09297459326465],[77.56316632520951,18.196081172705966],[77.60139602002386,18.27581692747392],[77.55093282286893,18.292313980184527],[77.52493663039517,18.37204973495248],[77.58457495430554,18.446286472150227],[77.59680845664613,18.549393051591544],[77.73902292135548,18.5562668235543],[77.72984779460003,18.66624717495837],[77.78795693071783,18.682744227668984],[77.83994931566534,18.805097368606013],[77.94852164893805,18.84359049159744],[77.84300769125048,18.90820394804733],[77.79713205747328,19.073174475153436],[77.8598287569688,19.180405317772408],[77.86288713255394,19.304133213101988],[77.94393408556034,19.342626336093414],[78.04180210428505,19.271139107680767],[78.17484144223896,19.238145002259543],[78.21154194926072,19.42786110843157],[78.30940996798543,19.48147652974105],[78.30635159240029,19.606579179463186],[78.27576783654881,19.691813951801343],[78.34305209942205,19.713810022082157],[78.36446072851808,19.78117298731715],[78.30635159240029,19.911774654609488],[78.3812817942364,19.880155303580814],[78.43174499139133,19.814167092738373],[78.57548864389324,19.818291355916024],[78.84156731980104,19.761926425821436],[78.85991757331193,19.689064443016242],[78.95625640424407,19.65607033759502],[78.93637696294061,19.5502142493686],[79.09694168116084,19.53234244226544],[79.19022213650783,19.459480459460238],[79.25291883600335,19.592831635537678],[79.36607873265379,19.576334582827066],[79.47159269034137,19.500723091236765],[79.74378811741948,19.60932868824829],[79.806484816915,19.579084091612167],[79.8645939530328,19.510346371984625],[79.94411171824662,19.47047849460065],[79.97775384968324,19.398991266188],[79.92881984032088,19.158409247491594],[79.8584772018625,19.102044317397006],[79.9395241548689,19.03468135216201],[79.96093278396494,18.865586561878253],[79.91352796239515,18.825718684494277],[80.01904192008273,18.77072850879224],[80.11843912660001,18.679994718883883],[80.2759454692351,18.71986259626786],[80.37228430016722,18.611256999256334],[80.4548604409662,18.630503560752047],[80.63683378828246,18.52327271813308],[80.70564723894827,18.439412700187475],[80.74846449714033,18.308811032895136],[80.7561104361032,18.169960839247498],[80.85244926703534,18.20570445345382],[80.8662119571685,18.139716242611378],[80.97937185381895,18.165836576069843],[80.97019672706351,18.04760769831047],[81.01607236084072,17.794652890081103],[81.08488581150652,17.797402398866204],[81.05888961903278,17.732788942416313],[80.97325510264866,17.77953059176304],[80.88609139847196,17.735538451201414],[80.91055840315315,17.6379308893303],[81.02065992421844,17.51970201157092],[81.30967641701486,17.409721660166852],[81.27450509778566,17.31761311586594],[81.1903997691941,17.324486887828698],[81.1735787034758,17.231003589135234],[80.99466373174468,17.191135711751258],[80.94114215900461,17.218630799602277],[80.87997464730167,17.160891115115138],[80.87691627171652,17.07015732520678],[80.84480332807247,17.03991272857066],[80.69953048777798,17.08390486913229],[80.58025383995724,17.152642588759832],[80.50532363812113,17.06878257081423],[80.36310917341179,16.97667402651332],[80.53437820618004,16.96155172819526],[80.60166246905327,16.918934342026184],[80.56343277423893,16.832324815295472],[80.56954952540923,16.76771135884558],[80.3218211030123,16.879066464642207],[80.30652922508656,16.973924517728214],[80.18725257726582,17.02066616707495],[80.05574242710449,16.971175008943113],[80.03892136138619,16.91755958763363],[80.07256349282281,16.817202516977414],[80.05574242710449,16.744340534172217],[79.94869928162434,16.635734937160695],[79.87682745537339,16.69759888482549],[79.79272212678183,16.725093972676504],[79.54193532879977,16.632985428375594],[79.4471256856602,16.619237884450087],[79.4180711176013,16.58074476145866],[79.25750639938107,16.5656224631406],[79.21927670456672,16.512007041831115],[79.21468914118901,16.226058128180526],[79.15810919286379,16.209561075469917],[79.0296574182876,16.241180426498588],[78.90426401929656,16.18344074201145],[78.92261427280745,16.12295154873921],[78.74064092549119,16.008846934157486],[78.60148483636699,16.084458425747783],[78.55102163921207,16.043215793971257],[78.4103363622953,16.07483514499993],[78.25588839524536,16.008846934157486],[78.24824245628248,15.971728565558612],[78.17484144223896,15.857623950976889],[78.08309017468454,15.841126898266277],[77.88735413723512,15.905740354716169],[77.80324880864357,15.874121003687499],[77.65950515614165,15.885119038827906],[77.51423231584715,15.927736424996983],[77.50046962571399,16.221933865002875],[77.59375008106099,16.342912251547354],[77.48976531116598,16.38552963771643],[77.41483510932987,16.36765783061327],[77.28791252254626,16.4089004623898]]]}},{"type":"Feature","properties":{"name":"Andhra Pradesh","country":"India"},"geometry":{"type":"Polygon","coordinates":[[[79.1626967562415,13.020130884751834],[78.9944860990584,13.086119095594277],[78.89203051695598,13.095742376342134],[78.7513452400392,13.054499744565607],[78.62136427767045,12.991261042508267],[78.59230970961156,12.78229837484053],[78.41186555008787,12.626951128482279],[78.30176402902256,12.665444251473703],[78.23142139056418,12.760302304559715],[78.25283001966021,12.860659375215931],[78.31246834357059,12.85928462082338],[78.35528560176265,12.940395129983884],[78.46691631062052,12.974763989797655],[78.5143211321903,13.061373516528363],[78.58619295844126,13.275835201766302],[78.44397849373192,13.308829307187523],[78.36446072851808,13.362444728497008],[78.37363585527352,13.509543448499954],[78.40116123553985,13.587904448875356],[78.32623103370375,13.59477822083811],[78.19625007133499,13.568657887379644],[78.20389601029785,13.629147080651883],[78.12131986949888,13.71575660738259],[78.11520311832858,13.862855327385535],[78.00051403388557,13.872478608133392],[77.9699302780341,13.959088134864098],[77.81395312319158,13.915095994302469],[77.78184017954754,13.818863186823906],[77.62127546132731,13.767997274299523],[77.45612317972936,13.682762501961367],[77.46988586986252,13.758373993551668],[77.43318536284076,13.843608765889822],[77.3261422173606,13.833985485141966],[77.18086937706612,13.869729099348291],[77.1579315601775,13.806490397290949],[77.06465110483052,13.743251695233607],[76.97748740065381,13.827111713179212],[77.04171328794192,13.932967801405631],[76.93161176687661,14.030575363276744],[76.94843283259492,14.095188819726637],[76.89491125985485,14.168050802531834],[77.00348359312757,14.198295399167954],[77.02795059780875,14.062194714305416],[77.17322343810325,14.012703556173584],[77.32155465398289,14.030575363276744],[77.39801404361157,13.906847467947163],[77.43471455063333,13.948090099723691],[77.3903681046487,14.016827819351235],[77.39342648023384,14.17492457449459],[77.50352800129914,14.157052767391427],[77.47906099661796,14.291778697861416],[77.40871835815958,14.337145592815595],[77.36437191217495,14.275281645150805],[77.13805211887404,14.337145592815595],[77.11664348977803,14.225790487018973],[77.00501278092014,14.235413767766829],[76.88420694530683,14.348143627956002],[76.90102801102515,14.489743330388745],[76.80621836788558,14.530985962165271],[76.76493029748609,14.602473190577918],[76.77563461203411,14.68083419095332],[76.83680212373704,14.790814542357392],[76.86738587958853,14.969532613389008],[76.76034273410838,14.988779174884721],[76.80010161671528,15.09601001750369],[76.9851333396167,15.014899508343188],[77.11358511419287,15.0341460698389],[77.15640237238493,15.14000215806532],[77.12581861653346,15.226611684796026],[77.15181480900722,15.29259989563847],[77.06312191703795,15.328343509844792],[77.03253816118647,15.435574352463762],[77.0310089733939,15.634913739383641],[77.0830013583414,15.659659318449558],[77.02642141001618,15.837002635088623],[77.07229704379338,15.909864617893822],[77.24815363993935,15.964854793595858],[77.51423231584715,15.927736424996983],[77.65950515614165,15.885119038827906],[77.80324880864357,15.874121003687499],[77.88735413723512,15.905740354716169],[78.08309017468454,15.841126898266277],[78.17484144223896,15.857623950976889],[78.24824245628248,15.971728565558612],[78.25588839524536,16.008846934157486],[78.4103363622953,16.07483514499993],[78.55102163921207,16.043215793971257],[78.60148483636699,16.084458425747783],[78.74064092549119,16.008846934157486],[78.92261427280745,16.12295154873921],[78.90426401929656,16.18344074201145],[79.0296574182876,16.241180426498588],[79.15810919286379,16.209561075469917],[79.21468914118901,16.226058128180526],[79.21927670456672,16.512007041831115],[79.25750639938107,16.5656224631406],[79.4180711176013,16.58074476145866],[79.4471256856602,16.619237884450087],[79.54193532879977,16.632985428375594],[79.79272212678183,16.725093972676504],[79.87682745537339,16.69759888482549],[79.94869928162434,16.635734937160695],[80.05574242710449,16.744340534172217],[80.07256349282281,16.817202516977414],[80.03892136138619,16.91755958763363],[80.05574242710449,16.971175008943113],[80.18725257726582,17.02066616707495],[80.30652922508656,16.973924517728214],[80.3218211030123,16.879066464642207],[80.56954952540923,16.76771135884558],[80.56343277423893,16.832324815295472],[80.60166246905327,16.918934342026184],[80.53437820618004,16.96155172819526],[80.36310917341179,16.97667402651332],[80.50532363812113,17.06878257081423],[80.58025383995724,17.152642588759832],[80.69953048777798,17.08390486913229],[80.84480332807247,17.03991272857066],[80.87691627171652,17.07015732520678],[80.87997464730167,17.160891115115138],[80.94114215900461,17.218630799602277],[80.99466373174468,17.191135711751258],[81.1735787034758,17.231003589135234],[81.1903997691941,17.324486887828698],[81.27450509778566,17.31761311586594],[81.30967641701486,17.409721660166852],[81.02065992421844,17.51970201157092],[80.91055840315315,17.6379308893303],[80.88609139847196,17.735538451201414],[80.97325510264866,17.77953059176304],[81.05888961903278,17.732788942416313],[81.08488581150652,17.797402398866204],[81.16593276451293,17.857891592138444],[81.26532997103021,17.811149942791715],[81.61704316332215,17.82352273232467],[81.71644036983943,17.875763399241606],[81.80972082518642,17.95687390840211],[81.9794606701621,18.013238838496697],[82.0314530551096,18.069603768591282],[82.16755076864864,18.053106715880674],[82.25012690944762,17.992617522608434],[82.31894036011343,18.044858189525364],[82.35105330375748,18.172710348032602],[82.3143527967357,18.185083137565556],[82.38316624740152,18.367925471774825],[82.36175761830549,18.421540893084313],[82.48562182950396,18.52877173570328],[82.60642766511727,18.366550717382275],[82.58654822381381,18.27719168186647],[82.77310913450779,18.34180513831636],[82.80675126594441,18.451785489720432],[82.8939149701211,18.381673015700336],[82.96884517195721,18.361051699812073],[83.07741750522995,18.40366908598115],[83.01930836911214,18.457284507290638],[83.04377537379332,18.545268788413892],[82.99942892780868,18.608507490471233],[83.13552664134774,18.7858508071103],[83.20434009201355,18.752856701689076],[83.41230963180357,18.873835088233555],[83.317499988664,18.97419215888977],[83.34808374451546,19.018184299451402],[83.45971445337334,18.956320351786612],[83.48112308246937,19.03468135216201],[83.60804566925299,19.0965452998268],[83.66309642978564,19.099294808611905],[83.75637688513262,18.91095345683243],[83.74720175837717,18.993438720385484],[83.79307739215439,19.018184299451402],[83.8909454108791,18.81609540374642],[84.0362182511736,18.81747015813897],[84.08973982391367,18.75835571925928],[84.22430834966015,18.79959835103581],[84.3191179927997,18.7886003158954],[84.4353362650353,18.924701000757942],[84.42310276269471,18.949446579823856],[84.51485403024913,19.049803650480072],[84.5913134198778,19.023683317021607],[84.62342636352186,19.085547264686397],[84.70141494094311,19.118541370107618],[84.76411164043863,19.074549229545987],[84.6035469222184,18.890332140944167],[84.5515545372709,18.78997507028795],[84.4934454011531,18.740483912156122],[84.3542893120289,18.55489206916175],[84.14784896003147,18.37342448934503],[84.12796951872801,18.31293529607279],[83.66309642978564,18.07922704933914],[83.41995557076643,17.856516837745893],[83.3465545567229,17.725915170453558],[83.1615228338215,17.559569888954897],[83.02083755690472,17.507329222037967],[82.99178298884581,17.472960362224192],[82.7027664960494,17.34373344932441],[82.54220177782918,17.248875396238397],[82.31894036011343,17.05778453567382],[82.24859772165505,16.935431394736792],[82.24859772165505,16.876316955857103],[82.36175761830549,16.85569563996884],[82.31741117232086,16.661855270619164],[82.3143527967357,16.558748691177847],[82.23330584372931,16.542251638467235],[81.95652285327348,16.39652767285684],[81.84947970779334,16.373156848183477],[81.71491118204686,16.311292900518684],[81.55281727603405,16.347036514725005],[81.39225255781382,16.342912251547354],[81.26532997103021,16.278298795097463],[81.21333758608272,16.208186321077367],[81.14758251100204,15.974478074343715],[81.01454317304814,15.850750179014133],[81.00842642187786,15.75451737153557],[80.93808378341946,15.716024248544146],[80.83104063793931,15.70640096779629],[80.77446068961409,15.867247231724743],[80.67965104647453,15.885119038827906],[80.53590739397261,15.852124933406683],[80.41815993394444,15.7985095120972],[80.315704351842,15.7228980205069],[80.25147846455391,15.633538984991091],[80.20560283077671,15.474067475455188],[80.12302668997773,15.368211387228769],[80.04045054917876,15.009400490772984],[80.10926399984457,14.738573875440457],[80.19642770402126,14.585976137867307],[80.16890232375493,14.350893136741103],[80.1306726289406,14.228539995804073],[80.14596450686633,14.041573398417153],[80.25453684013907,13.783119572617583],[80.23312821104304,13.6566421685029],[80.26829953027223,13.56453362420199],[80.21477795753215,13.490296887004241],[80.07868024399309,13.488922132611691],[80.03739217359362,13.538413290743524],[79.94564090603919,13.363819482889559],[79.80954319250014,13.317077833542829],[79.79425131457441,13.240091587559977],[79.70250004702,13.222219780456816],[79.68262060571654,13.296456517654565],[79.53428938983689,13.275835201766302],[79.53734776542204,13.339073903823643],[79.40583761526071,13.334949640645991],[79.43795055890476,13.187850920643044],[79.28350259185483,13.123237464193153],[79.22845183132218,13.157606324006924],[79.23456858249247,13.10536565708999],[79.1626967562415,13.020130884751834]],[[82.26694797516593,16.694849376040384],[82.27000635075107,16.722344463891403],[82.18590102215953,16.737466762209465],[82.19966371229269,16.720969709498853],[82.23942259489961,16.7168454463212],[82.26694797516593,16.694849376040384]]]}},{"type":"Feature","properties":{"name":"West Bengal","country":"India"},"geometry":{"type":"MultiPolygon","coordinates":[[[[88.12526640851542,21.674209785859738],[88.03198595316843,21.687957329785245],[88.10385777941939,21.841929821750945],[88.1665544789149,21.822683260255232],[88.17114204229263,21.737448487917078],[88.12526640851542,21.674209785859738]]],[[[88.18643392021836,22.104507910728167],[88.06409889681247,22.017898383997462],[87.95552656353975,21.830931786610538],[87.78884509414922,21.698955364925652],[87.6741560097062,21.650838961186373],[87.48453672342708,21.61509534698005],[87.44171946523501,21.767693084553198],[87.28268393480735,21.80343669875952],[87.24904180337074,21.854302611283906],[87.24292505220045,21.964282962687975],[87.10835652645397,21.924415085304],[87.10071058749111,21.86392589203176],[87.00131338097381,21.913417050163595],[87.02883876124014,22.038519699885725],[86.96461287395205,22.085261349232454],[86.83769028716844,22.097634138765414],[86.72758876610314,22.21586301652479],[86.83310272379072,22.32584336792886],[86.84533622613131,22.400080105126612],[86.7642892731249,22.426200438585077],[86.80098978014666,22.488064386249867],[86.76581846091747,22.576048667373126],[86.65877531543732,22.576048667373126],[86.64195424971902,22.65715917653363],[86.41869283200327,22.790510352611065],[86.43551389772158,22.926611037473606],[86.50126897280225,22.993974002708597],[86.24130704806473,22.9967235114937],[86.04404182282273,23.145196985889196],[85.88500629239508,23.16719305617001],[85.81925121731442,23.268924881218776],[85.8834771046025,23.35003539037928],[85.85901009992133,23.42977114514723],[85.88500629239508,23.48338656645672],[86.03945425944502,23.498508864774777],[86.08227151763708,23.565871830009772],[86.15873090726576,23.558998058047017],[86.17708116077664,23.469639022531208],[86.31012049873054,23.411899338044073],[86.36517125926319,23.531502970195998],[86.48597709487652,23.63598430402987],[86.7122968881774,23.69922300608721],[86.80098978014666,23.69922300608721],[86.82698597262042,23.76521121692965],[86.80098978014666,23.833948936557196],[86.9156788645897,23.882065340296478],[87.08541870956536,23.811952866276382],[87.12976515555,23.85319549805291],[87.23374992544501,23.85594500683801],[87.29491743714794,23.90131190179219],[87.23374992544501,24.02503979712177],[87.33620550754743,24.034663077869627],[87.44019027744244,23.982422410952694],[87.63133875151414,24.163889990769412],[87.638984690477,24.254623780677772],[87.70626895335025,24.260122798247973],[87.80107859648982,24.382475939185007],[87.79343265752695,24.583190080497435],[87.88977148845908,24.565318273394276],[87.90812174196996,24.722040274145076],[87.83930829130415,24.74541109881844],[87.89130067625166,24.855391450222513],[87.96011412691746,24.921379661064957],[87.95399737574718,24.97362032798189],[87.79496184531952,25.087724942563614],[87.77814077960122,25.24994596088462],[87.71085651672797,25.258194487239926],[87.76284890167547,25.265068259202682],[87.81789966220812,25.241697434529318],[87.84695423026702,25.298062364623902],[87.7842575307715,25.34067975079298],[87.7674364650532,25.41629124238328],[87.86683367157048,25.497401751543784],[87.96011412691746,25.53864438332031],[88.06715727239762,25.483654207618272],[88.02128163862041,25.59638406780745],[88.0503362066793,25.700865401641316],[87.96776006588033,25.72561098070723],[87.89282986404423,25.865835928747423],[87.82707478896356,25.89058150781334],[87.82248722558585,25.93594840276752],[87.85001260585217,26.039054982208835],[87.97540600484321,26.143536316042706],[88.07327402356792,26.175155667071376],[88.14667503761144,26.250767158661674],[88.27971437556535,26.330502913429626],[88.23995549295844,26.45835507193686],[88.10997453058968,26.54771410745267],[88.16043772774461,26.63707314296848],[88.18643392021836,26.771799073438466],[88.12067884513769,26.950517144470084],[87.99222707056151,27.108613899613434],[88.03810270433873,27.219969005410057],[88.09621184045652,27.133359478679353],[88.15432097657431,27.109988654005985],[88.28124356335792,27.131984724286802],[88.42498721585984,27.071495531014563],[88.53203036133999,27.17597686484843],[88.59778543642066,27.188349654381387],[88.72164964761913,27.138858496249554],[88.86539330012104,27.108613899613434],[88.86845167570618,26.96563944278814],[88.9204440606537,26.99450928503171],[89.08865471783679,26.88865319680529],[89.09018390562936,26.84053679306601],[89.12841360044371,26.806167933252237],[89.25533618722731,26.807542687644787],[89.37461283504805,26.85428433699152],[89.45413060026188,26.79791940689693],[89.54741105560888,26.813041705214992],[89.63610394757814,26.751177757550202],[89.76302653436176,26.69893709063327],[89.85171942633102,26.69756233624072],[89.8700696798419,26.61370231829511],[89.83489836061271,26.414362931375234],[89.84254429957558,26.38274358034656],[89.78137678787263,26.35249898371044],[89.70032983486624,26.217773053240453],[89.72938440292513,26.17103140389372],[89.63457475978556,26.22877108838086],[89.60857856731181,26.153159596790562],[89.6498666377113,26.063800561274753],[89.54129430443858,26.006060876787615],[89.3486166425743,26.01018513996527],[89.22933999475356,26.124289754546993],[89.15440979291745,26.13941205286505],[89.09630065679966,26.390992106701866],[88.98314076014921,26.447357036796454],[88.90973974610569,26.37999407156146],[88.98619913573435,26.34974947492534],[88.92656081182399,26.283761264082898],[88.75987934243346,26.329128159037076],[88.70177020631567,26.386867843524215],[88.53050117354742,26.478976387825124],[88.42039965248212,26.562836405770728],[88.40052021117867,26.64394691493123],[88.33323594830543,26.496848194928287],[88.4846255397702,26.461104580721962],[88.51520929562169,26.3648717732434],[88.40204939897124,26.330502913429626],[88.3515862018163,26.221897316418104],[88.1787879812555,26.149035333612908],[88.09315346487136,25.930449385197317],[88.10079940383424,25.8300923145411],[88.1436166620263,25.794348700334776],[88.26748087322477,25.78197591080182],[88.45404178391874,25.66374703304244],[88.44639584495587,25.595009313414895],[88.64671944578302,25.47815519004807],[88.81187172738098,25.52352208500225],[88.83939710764729,25.364050575466347],[88.98772832352694,25.273316785557988],[88.90973974610569,25.179833486864524],[88.80575497621066,25.170210206116668],[88.73388314995971,25.199080048360237],[88.43569153040787,25.200454802752787],[88.45251259612617,25.07947641620831],[88.39440346000838,24.96949606480424],[88.27818518777278,24.889760310036287],[88.22619280282527,24.959872784056383],[88.14055828644115,24.9145058891022],[88.17420041787777,24.860890467792718],[88.0686864601902,24.77015667788436],[88.0273983897907,24.690420923116406],[88.13291234747828,24.510328097692238],[88.334765136098,24.442965132457246],[88.38216995766778,24.396223483110514],[88.55955574160632,24.308239201987256],[88.68341995280478,24.324736254697868],[88.74152908892258,24.254623780677772],[88.7461166523003,24.1473929380588],[88.70024101852309,24.096527025534417],[88.74305827671515,24.034663077869627],[88.73235396216714,23.910935182540047],[88.6069605631761,23.861444024408215],[88.56414330498404,23.712970550012717],[88.59319787304294,23.616737742534156],[88.7231788354117,23.512256408700285],[88.7629377180186,23.446268197857844],[88.70941614527854,23.231806512619904],[88.81034253958839,23.25517733729327],[88.94185268974972,23.205686179161436],[88.85774736115818,22.967853669250132],[88.96937807001605,22.84412577392055],[88.91279812169083,22.757516247189844],[88.96326131884575,22.69290279073995],[88.92656081182399,22.650285404570873],[88.99996182586752,22.428949947370178],[88.9953742624898,22.287350244937436],[89.06571690094819,22.207614490169483],[89.05501258640017,22.12787873540153],[89.06877527653333,21.949160664369916],[89.0076077648304,21.902419015023185],[88.93267756299429,21.94228689240716],[88.85315979778045,21.923040330911448],[88.7629377180186,21.95465968194012],[88.7629377180186,22.01514887521236],[88.63295675564986,21.95465968194012],[88.53203036133999,21.852927856891355],[88.4448666571633,21.917541313341246],[88.39134508442322,21.896919997452983],[88.35923214077917,21.80481145315207],[88.26748087322477,21.72782520716922],[88.30265219245396,21.670085522682083],[88.2598349342619,21.55598090810036],[88.21243011269212,21.782815382871256],[88.14514584981887,21.95465968194012],[88.20784254931439,22.026146910352765],[88.2185468638624,22.103133156335616],[88.18337554463321,22.18699317428122],[88.08244915032336,22.26122991147897],[87.99834382173181,22.24473285876836],[88.01516488745011,22.20211547259928],[88.13597072306344,22.18561841988867],[88.18643392021836,22.104507910728167]]],[[[89.03819152068186,21.610971083802397],[89.01525370379326,21.778691119693605],[89.09324228121451,21.652213715578924],[89.03819152068186,21.610971083802397]]],[[[88.77670040815177,21.868050155209414],[88.80881335179582,21.668710768289532],[88.7461166523003,21.661836996326777],[88.69106589176765,21.75119603184259],[88.71553289644882,21.905168523808285],[88.77670040815177,21.868050155209414]]],[[[88.94796944092002,21.769067838945748],[88.82104685413641,21.9271645940891],[88.88221436583936,21.913417050163595],[88.9433818775423,21.914791804556145],[88.94796944092002,21.769067838945748]]]]}},{"type":"Feature","properties":{"name":"Qatar","country":"Qatar"},"geometry":{"type":"Polygon","coordinates":[[[51.267969,24.607227],[51.178027,24.586719],[51.093359,24.564648],[51.022754,24.565234],[50.966016,24.573926],[50.92832,24.595117],[50.855664,24.679639],[50.804395,24.789258],[50.835938,24.850391],[50.846777,24.888574],[50.777344,25.177441],[50.75459,25.399268],[50.762891,25.444727],[50.802637,25.49707],[50.868652,25.612695],[50.903809,25.724072],[51.003125,25.981445],[51.108105,26.080566],[51.262305,26.153271],[51.389063,26.011133],[51.543066,25.902393],[51.572266,25.781006],[51.526953,25.682129],[51.485352,25.524707],[51.510254,25.452344],[51.519531,25.389746],[51.561426,25.284473],[51.601953,25.147949],[51.608887,25.052881],[51.586914,24.964844],[51.533398,24.890869],[51.42793,24.668262],[51.396484,24.645117],[51.267969,24.607227]]]}}]}